SL-8 R/B                
1 11574U 79089B   26067.49703762  .00000406  00000+0  13070-3 0  9993
2 11574  74.0668  93.2517 0017165 266.0889  93.8305 14.42350155435939
SL-14 R/B               
1 11672U 80005B   26067.65384081  .00000773  00000+0  75654-4 0  9993
2 11672  82.5146 308.2189 0016101 161.5267 198.6541 14.90929248476338
SL-8 R/B                
1 12139U 81003B   26067.60997207  .00026731  00000+0  68623-3 0  9995
2 12139  82.9385 291.0224 0262295 182.3853 177.6154 15.10927552314511
SL-3 R/B                
1 12465U 81046B   26067.61640566  .00017861  00000+0  41562-3 0  9995
2 12465  81.2298 291.0332 0019631  26.0348 334.1877 15.41964694438268
SL-3 R/B                
1 12904U 81103B   26067.58842244  .00007772  00000+0  34502-3 0  9996
2 12904  81.1590 214.7237 0012484 290.6647  69.3246 15.21362271973066
SL-3 R/B                
1 13068U 82013B   26067.59695418  .00007293  00000+0  31606-3 0  9999
2 13068  81.1763 162.0511 0022615 181.0617 179.0571 15.22005837404182
SL-3 R/B                
1 13154U 82039B   26067.59662336  .00004036  00000+0  24405-3 0  9997
2 13154  81.1585 217.2219 0029762 328.0593  31.8827 15.10074549381472
SL-3 R/B                
1 13403U 82079B   26067.61691167  .00010320  00000+0  41147-3 0  9990
2 13403  81.1483 194.3434 0025047 168.3785 191.8032 15.24782909377538
SL-14 R/B               
1 13553U 82092B   26067.64444399  .00000659  00000+0  71316-4 0  9993
2 13553  82.5698 142.3772 0019049 307.2753 170.0379 14.86665515328774
SL-3 R/B                
1 13819U 83010B   26067.53150238  .00023248  00000+0  46739-3 0  9992
2 13819  81.1064   3.6671 0018098  54.9008 305.3931 15.46309033357765
SL-3 R/B                
1 14208U 83075B   26067.58134503  .00015762  00000+0  41556-3 0  9992
2 14208  97.6145  72.1165 0020021 230.1673 129.7811 15.38387344329984
COSMOS 1536             
1 14699U 84013A   26067.60358563  .00008958  00000+0  36989-3 0  9999
2 14699  82.5426 108.9299 0012517 287.8222  72.1649 15.23809497272450
SL-14 R/B               
1 14820U 84027B   26067.54840983  .00000705  00000+0  77799-4 0  9992
2 14820  82.5385 246.0833 0017430 341.7563  18.3026 14.85975346247463
SL-8 R/B                
1 15483U 85006B   26067.61487597  .00000332  00000+0  11886-3 0  9992
2 15483  74.0432 263.1264 0018478 181.2024 243.0330 14.37781864153871
SL-12 R/B(2)            
1 15772U 85042D   26067.51783754  .00000037  00000+0  38013-4 0  9990
2 15772  71.1063  90.2049 0033321 130.0929  31.0224 14.21982138114223
SL-14 R/B               
1 15945U 85069B   26067.60085666  .00000779  00000+0  85241-4 0  9996
2 15945  82.5284  25.9565 0018367 191.3307 168.7499 14.86431870172675
SL-16 R/B               
1 16182U 85097B   26067.66479950 -.00000181  00000+0 -66860-4 0  9995
2 16182  71.0031 142.7122 0009935 260.9745 261.2623 14.16599115 87087
